OBJECT_NAME,OBJECT_ID,EPOCH,MEAN_MOTION,ECCENTRICITY,INCLINATION,RA_OF_ASC_NODE,ARG_OF_PERICENTER,MEAN_ANOMALY,EPHEMERIS_TYPE,CLASSIFICATION_TYPE,NORAD_CAT_ID,ELEMENT_SET_NO,REV_AT_EPOCH,BSTAR,MEAN_MOTION_DOT,MEAN_MOTION_DDOT
ONEWEB-0534,2023-029B,2026-07-19T17:30:12.066912,13.20769853,.0002046,87.9174,267.9824,100.1963,259.9401,0,U,55797,999,16544,-.50979E-4,-.8E-7,0
ONEWEB-0556,2023-029C,2026-07-19T17:39:55.128672,13.20770640,.0001421,87.9171,267.9797,117.5553,242.5725,0,U,55798,999,16544,.25188E-4,.23E-6,0
ONEWEB-0562,2023-029D,2026-07-19T17:20:30.936192,13.20772459,.0001234,87.9168,267.9636,89.3210,270.8065,0,U,55799,999,16544,-.26781E-3,-.96E-6,0
ONEWEB-0563,2023-029E,2026-07-19T17:13:14.818368,13.20769643,.0002112,87.9173,267.9946,102.9629,257.1740,0,U,55800,999,16543,-.92605E-4,-.25E-6,0
ONEWEB-0564,2023-029F,2026-07-19T17:03:33.189120,13.20772547,.000167,87.9171,267.9700,92.7537,267.3788,0,U,55801,999,16544,-.1247E-3,-.38E-6,0
ONEWEB-0638,2023-029G,2026-07-19T17:50:05.923104,13.14504711,.0001497,87.8951,283.2624,107.2913,252.8380,0,U,55802,999,16367,.34666E-3,.141E-5,0
ONEWEB-0639,2023-029H,2026-07-19T20:39:13.495104,13.19724912,.0002759,87.9184,298.4699,115.8552,244.2866,0,U,55803,999,16321,-.32842E-3,-.119E-5,0
ONEWEB-0640,2023-029J,2026-07-19T18:03:48.819168,13.14502515,.0001694,87.8952,283.2515,119.1531,240.9769,0,U,55804,999,16369,.76034E-3,.295E-5,0
ONEWEB-0641,2023-029K,2026-07-19T18:43:15.220992,13.19726525,.0002056,87.9195,298.4778,104.6012,255.5349,0,U,55805,999,16321,.74009E-4,.43E-6,0
ONEWEB-0642,2023-029L,2026-07-19T18:36:25.378272,13.19726205,.0002781,87.9186,298.4881,109.8628,250.2805,0,U,55806,999,16320,.7715E-4,.44E-6,0
ONEWEB-0643,2023-029M,2026-07-19T17:20:25.696032,13.14502680,.0002713,87.8954,283.2447,103.5596,256.5836,0,U,55807,999,16366,-.54731E-3,-.19E-5,0
ONEWEB-0644,2023-029N,2026-07-19T18:29:36.250944,13.19725842,.0002355,87.9184,298.4899,104.8477,255.2917,0,U,55808,999,16320,.17411E-3,.83E-6,0
ONEWEB-0645,2023-029P,2026-07-19T19:01:26.591232,13.19726219,.0002122,87.9184,298.4826,113.1474,246.9882,0,U,55809,999,16320,-.15396E-3,-.49E-6,0
ONEWEB-0646,2023-029Q,2026-07-19T19:26:26.871072,13.19725211,.0002263,87.9184,298.4791,104.4456,255.6928,0,U,55810,999,16319,-.64718E-3,-.246E-5,0
ONEWEB-0648,2023-029R,2026-07-19T18:24:21.595968,13.14503208,.0002539,87.8966,283.2127,119.7284,240.4098,0,U,55811,999,16367,.23651E-3,.1E-5,0
ONEWEB-0649,2023-029S,2026-07-19T18:13:39.586080,13.19724674,.0002125,87.9184,298.4873,107.4910,252.6455,0,U,55812,999,16322,-.35933E-3,-.131E-5,0
ONEWEB-0650,2023-029T,2026-07-19T19:56:01.241088,13.19724942,.0002568,87.9184,298.4757,108.8803,251.2608,0,U,55813,999,16320,-.25147E-3,-.88E-6,0
ONEWEB-0652,2023-029U,2026-07-19T17:56:57.708960,13.14502572,.0001951,87.8964,283.2231,94.7799,265.3554,0,U,55814,999,16364,.58725E-3,.231E-5,0
ONEWEB-0653,2023-029V,2026-07-19T17:34:07.258944,13.14502123,.0001947,87.8964,283.2245,100.0763,260.0587,0,U,55815,999,16367,-.25457E-3,-.82E-6,0
ONEWEB-0654,2023-029W,2026-07-19T17:27:16.063200,13.14502192,.0001771,87.8964,283.2215,92.4513,267.6819,0,U,55816,999,16369,-.57505E-3,-.2E-5,0
ONEWEB-0656,2023-029X,2026-07-19T16:53:51.359424,13.20769921,.0001786,87.9184,267.9512,87.8522,272.2816,0,U,55817,999,16544,.2236E-4,.22E-6,0
ONEWEB-0657,2023-029Y,2026-07-19T19:49:13.769184,13.19727154,.0002047,87.9183,298.4749,77.8857,282.2505,0,U,55818,999,16321,-.59678E-4,-.11E-6,0
ONEWEB-0658,2023-029Z,2026-07-19T19:42:23.133312,13.19726593,.00024,87.9194,298.4543,105.3019,254.8379,0,U,55819,999,16322,-.11404E-3,-.33E-6,0
ONEWEB-0660,2023-029AA,2026-07-19T18:44:54.608640,13.14502200,.0001996,87.8974,283.2064,109.6087,250.5258,0,U,55820,999,16368,-.36865E-3,-.124E-5,0
ONEWEB-0661,2023-029AB,2026-07-19T17:45:32.803200,13.14502848,.0001838,87.8952,283.2544,107.7322,252.4008,0,U,55821,999,16366,.60813E-4,.35E-6,0
ONEWEB-0662,2023-029AC,2026-07-19T18:35:47.339808,13.14502049,.0002009,87.8957,283.2527,109.3847,250.7500,0,U,55822,999,16371,.12029E-3,.57E-6,0
ONEWEB-0663,2023-029AD,2026-07-19T17:38:52.880928,13.20871676,.0002231,87.9186,268.0159,108.7073,251.4302,0,U,55823,999,16544,-.2898E-4,.1E-7,0
ONEWEB-0664,2023-029AE,2026-07-19T16:34:28.390368,13.20771971,.0001608,87.9168,268.0021,105.5356,254.5955,0,U,55824,999,16543,.3013E-3,.135E-5,0
ONEWEB-0665,2023-029AF,2026-07-19T17:40:58.942848,13.14502477,.0002086,87.8952,283.2357,108.9365,251.1991,0,U,55825,999,16368,-.76096E-4,-.15E-6,0
ONEWEB-0666,2023-029AG,2026-07-19T16:24:44.957952,13.20770723,.0002381,87.9167,267.9937,81.5546,278.5857,0,U,55826,999,16544,-.4413E-3,-.166E-5,0
