ONEWEB-0534             
1 55797U 23029B   26200.72930633 -.00000008  00000+0 -50979-4 0  9995
2 55797  87.9174 267.9824 0002046 100.1963 259.9401 13.20769853165445
ONEWEB-0556             
1 55798U 23029C   26200.73605473  .00000023  00000+0  25188-4 0  9997
2 55798  87.9171 267.9797 0001421 117.5553 242.5725 13.20770640165448
ONEWEB-0562             
1 55799U 23029D   26200.72258028 -.00000096  00000+0 -26781-3 0  9998
2 55799  87.9168 267.9636 0001234  89.3210 270.8065 13.20772459165446
ONEWEB-0563             
1 55800U 23029E   26200.71753262 -.00000025  00000+0 -92605-4 0  9991
2 55800  87.9173 267.9946 0002112 102.9629 257.1740 13.20769643165439
ONEWEB-0564             
1 55801U 23029F   26200.71080080 -.00000038  00000+0 -12470-3 0  9998
2 55801  87.9171 267.9700 0001670  92.7537 267.3788 13.20772547165441
ONEWEB-0638             
1 55802U 23029G   26200.74312411  .00000141  00000+0  34666-3 0  9992
2 55802  87.8951 283.2624 0001497 107.2913 252.8380 13.14504711163679
ONEWEB-0639             
1 55803U 23029H   26200.86057286 -.00000119  00000+0 -32842-3 0  9993
2 55803  87.9184 298.4699 0002759 115.8552 244.2866 13.19724912163211
ONEWEB-0640             
1 55804U 23029J   26200.75264837  .00000295  00000+0  76034-3 0  9998
2 55804  87.8952 283.2515 0001694 119.1531 240.9769 13.14502515163699
ONEWEB-0641             
1 55805U 23029K   26200.78003728  .00000043  00000+0  74009-4 0  9994
2 55805  87.9195 298.4778 0002056 104.6012 255.5349 13.19726525163213
ONEWEB-0642             
1 55806U 23029L   26200.77529373  .00000044  00000+0  77150-4 0  9994
2 55806  87.9186 298.4881 0002781 109.8628 250.2805 13.19726205163207
ONEWEB-0643             
1 55807U 23029M   26200.72251963 -.00000190  00000+0 -54731-3 0  9990
2 55807  87.8954 283.2447 0002713 103.5596 256.5836 13.14502680163667
ONEWEB-0644             
1 55808U 23029N   26200.77055846  .00000083  00000+0  17411-3 0  9991
2 55808  87.9184 298.4899 0002355 104.8477 255.2917 13.19725842163205
ONEWEB-0645             
1 55809U 23029P   26200.79266888 -.00000049  00000+0 -15396-3 0  9998
2 55809  87.9184 298.4826 0002122 113.1474 246.9882 13.19726219163205
ONEWEB-0646             
1 55810U 23029Q   26200.81003323 -.00000246  00000+0 -64718-3 0  9997
2 55810  87.9184 298.4791 0002263 104.4456 255.6928 13.19725211163194
ONEWEB-0648             
1 55811U 23029R   26200.76691662  .00000100  00000+0  23651-3 0  9999
2 55811  87.8966 283.2127 0002539 119.7284 240.4098 13.14503208163679
ONEWEB-0649             
1 55812U 23029S   26200.75948595 -.00000131  00000+0 -35933-3 0  9991
2 55812  87.9184 298.4873 0002125 107.4910 252.6455 13.19724674163220
ONEWEB-0650             
1 55813U 23029T   26200.83056992 -.00000088  00000+0 -25147-3 0  9999
2 55813  87.9184 298.4757 0002568 108.8803 251.2608 13.19724942163200
ONEWEB-0652             
1 55814U 23029U   26200.74789015  .00000231  00000+0  58725-3 0  9995
2 55814  87.8964 283.2231 0001951  94.7799 265.3554 13.14502572163649
ONEWEB-0653             
1 55815U 23029V   26200.73202846 -.00000082  00000+0 -25457-3 0  9999
2 55815  87.8964 283.2245 0001947 100.0763 260.0587 13.14502123163675
ONEWEB-0654             
1 55816U 23029W   26200.72726925 -.00000200  00000+0 -57505-3 0  9999
2 55816  87.8964 283.2215 0001771  92.4513 267.6819 13.14502192163694
ONEWEB-0656             
1 55817U 23029X   26200.70406666  .00000022  00000+0  22360-4 0  9997
2 55817  87.9184 267.9512 0001786  87.8522 272.2816 13.20769921165449
ONEWEB-0657             
1 55818U 23029Y   26200.82585381 -.00000011  00000+0 -59678-4 0  9995
2 55818  87.9183 298.4749 0002047  77.8857 282.2505 13.19727154163210
ONEWEB-0658             
1 55819U 23029Z   26200.82110108 -.00000033  00000+0 -11404-3 0  9995
2 55819  87.9194 298.4543 0002400 105.3019 254.8379 13.19726593163226
ONEWEB-0660             
1 55820U 23029AA  26200.78118760 -.00000124  00000+0 -36865-3 0  9993
2 55820  87.8974 283.2064 0001996 109.6087 250.5258 13.14502200163685
ONEWEB-0661             
1 55821U 23029AB  26200.73996300  .00000035  00000+0  60813-4 0  9993
2 55821  87.8952 283.2544 0001838 107.7322 252.4008 13.14502848163661
ONEWEB-0662             
1 55822U 23029AC  26200.77485347  .00000057  00000+0  12029-3 0  9991
2 55822  87.8957 283.2527 0002009 109.3847 250.7500 13.14502049163716
ONEWEB-0663             
1 55823U 23029AD  26200.73533427  .00000001  00000+0 -28980-4 0  9995
2 55823  87.9186 268.0159 0002231 108.7073 251.4302 13.20871676165447
ONEWEB-0664             
1 55824U 23029AE  26200.69060637  .00000135  00000+0  30130-3 0  9995
2 55824  87.9168 268.0021 0001608 105.5356 254.5955 13.20771971165436
ONEWEB-0665             
1 55825U 23029AF  26200.73679332 -.00000015  00000+0 -76096-4 0  9990
2 55825  87.8952 283.2357 0002086 108.9365 251.1991 13.14502477163680
ONEWEB-0666             
1 55826U 23029AG  26200.68385368 -.00000166  00000+0 -44130-3 0  9998
2 55826  87.9167 267.9937 0002381  81.5546 278.5857 13.20770723165446
